NORAD_CAT_ID,OBJECT_NAME,OBJECT_TYPE,EPOCH,MEAN_MOTION,ECCENTRICITY,INCLINATION,RA_OF_ASC_NODE,ARG_OF_PERICENTER,MEAN_ANOMALY,BSTAR,MEAN_MOTION_DOT,MEAN_MOTION_DDOT,TLE_LINE0,TLE_LINE1,TLE_LINE2,SEMIMAJOR_AXIS,PERIOD,APOGEE,PERIGEE,DECAYED
55950.0,STARLINK-5911,PAYLOAD,2024-04-18 13:01:37,14.98307865,0.0002611,70.0029,204.6529,261.9629,98.1234,0.00064519,7.609e-05,0.0,0 STARLINK-5911,1 55950U 23037AN  24109.54279235  .00007609  00000-0  64519-3 0  9992,2 55950  70.0029 204.6529 0002611 261.9629  98.1234 14.98307865 61439,6950.261,96.108,573.941,570.312,0.0
55950.0,STARLINK-5911,PAYLOAD,2024-04-18 16:13:53,14.9830788,0.0002692,70.003,204.3163,266.7218,93.3633,0.00071987,8.502e-05,0.0,0 STARLINK-5911,1 55950U 23037AN  24109.67631222  .00008502  00000-0  71987-3 0  9994,2 55950  70.0030 204.3163 0002692 266.7218  93.3633 14.98307880 61110,6950.261,96.108,573.997,570.255,0.0
55950.0,STARLINK-5911,PAYLOAD,2024-04-19 05:02:57,14.98390082,0.0002745,70.0032,202.9727,249.0044,111.0821,-0.00073428,-8.857e-05,0.0,0 STARLINK-5911,1 55950U 23037AN  24110.21038934 -.00008857  00000-0 -73428-3 0  9994,2 55950  70.0032 202.9727 0002745 249.0044 111.0821 14.98390082 61531,6950.007,96.103,573.78,569.964,0.0
55950.0,STARLINK-5911,PAYLOAD,2024-04-19 13:03:38,14.98335436,0.0002536,70.0036,202.1286,257.8204,102.2671,5.2516e-05,5.34e-06,0.0,0 STARLINK-5911,1 55950U 23037AN  24110.54419330  .00000534  00000-0  52516-4 0  9991,2 55950  70.0036 202.1286 0002536 257.8204 102.2671 14.98335436 61582,6950.176,96.107,573.804,570.279,0.0
55950.0,STARLINK-5911,PAYLOAD,2024-04-19 14:39:46,14.98339239,0.0002589,70.0021,201.9574,265.9586,94.1278,9.1066e-05,9.94e-06,0.0,0 STARLINK-5911,1 55950U 23037AN  24110.61095013  .00000994  00000-0  91066-4 0  9990,2 55950  70.0021 201.9574 0002589 265.9586  94.1278 14.98339239 61255,6950.164,96.106,573.829,570.23,0.0
55950.0,STARLINK-5911,PAYLOAD,2024-04-19 16:15:53,14.98342991,0.0002458,70.0027,201.791,251.949,108.1401,9.5329e-05,1.045e-05,0.0,0 STARLINK-5911,1 55950U 23037AN  24110.67770668  .00001045  00000-0  95329-4 0  9996,2 55950  70.0027 201.7910 0002458 251.9490 108.1401 14.98342991 61609,6950.153,96.106,573.726,570.309,0.0
55950.0,STARLINK-5911,PAYLOAD,2024-04-20 13:05:37,14.98353111,0.000241,70.0034,199.6048,249.9186,110.1714,4.9401e-05,4.97e-06,0.0,0 STARLINK-5911,1 55950U 23037AN  24111.54556804  .00000497  00000-0  49401-4 0  9997,2 55950  70.0034 199.6048 0002410 249.9186 110.1714 14.98353111 61731,6950.121,96.106,573.661,570.311,0.0
55950.0,STARLINK-5911,PAYLOAD,2024-04-20 14:41:49,14.98301776,0.0002103,70.0042,199.4363,233.2952,126.8014,-0.00052026,-6.29e-05,0.0,0 STARLINK-5911,1 55950U 23037AN  24111.61237452 -.00006290  00000-0 -52026-3 0  9995,2 55950  70.0042 199.4363 0002103 233.2952 126.8014 14.98301776 61405,6950.28,96.109,573.607,570.684,0.0
55950.0,STARLINK-5911,PAYLOAD,2024-04-20 16:17:56,14.9830667,0.0002517,70.0021,199.2668,259.0844,101.0032,-0.00051287,-6.203e-05,0.0,0 STARLINK-5911,1 55950U 23037AN  24111.67913127 -.00006203  00000-0 -51287-3 0  9993,2 55950  70.0021 199.2668 0002517 259.0844 101.0032 14.98306670 61754,6950.265,96.108,573.879,570.381,0.0
55950.0,STARLINK-5911,PAYLOAD,2024-04-21 13:07:40,14.98317866,0.0002276,70.0019,197.0772,269.3688,90.721,-0.0001482,-1.86e-05,0.0,0 STARLINK-5911,1 55950U 23037AN  24112.54700103 -.00001860  00000-0 -14820-3 0  9994,2 55950  70.0019 197.0772 0002276 269.3688  90.7210 14.98317866 61880,6950.23,96.108,573.677,570.514,0.0
55950.0,STARLINK-5911,PAYLOAD,2024-04-21 16:19:56,14.98327925,0.0002438,70.0009,196.7388,263.482,96.6062,-5.7785e-05,-7.82e-06,0.0,0 STARLINK-5911,1 55950U 23037AN  24112.68051127 -.00000782  00000-0 -57785-4 0  9994,2 55950  70.0009 196.7388 0002438 263.4820  96.6062 14.98327925 61901,6950.199,96.107,573.759,570.37,0.0
55950.0,STARLINK-5911,PAYLOAD,2024-04-22 09:57:24,14.98339635,0.0002577,70.0013,194.8885,260.4591,99.6277,-0.00026514,-3.256e-05,0.0,0 STARLINK-5911,1 55950U 23037AN  24113.41486860 -.00003256  00000-0 -26514-3 0  9996,2 55950  70.0013 194.8885 0002577 260.4591  99.6277 14.98339635 61679,6950.163,96.106,573.819,570.237,0.0
55950.0,STARLINK-5911,PAYLOAD,2024-04-22 14:45:47,14.98351512,0.0002606,70.0017,194.3846,268.7125,91.3735,-0.000138,-1.74e-05,0.0,0 STARLINK-5911,1 55950U 23037AN  24113.61513701 -.00001740  00000-0 -13800-3 0  9993,2 55950  70.0017 194.3846 0002606 268.7125  91.3735 14.98351512 62040,6950.126,96.106,573.803,570.18,0.0
55950.0,STARLINK-5911,PAYLOAD,2024-04-23 13:11:42,14.98325087,0.0002419,70.0017,192.0283,259.3767,100.712,0.00010137,1.117e-05,0.0,0 STARLINK-5911,1 55950U 23037AN  24114.54979200  .00001117  00000-0  10137-3 0  9992,2 55950  70.0017 192.0283 0002419 259.3767 100.7120 14.98325087 62186,6950.208,96.107,573.754,570.392,0.0
55950.0,STARLINK-5911,PAYLOAD,2024-04-23 14:47:49,14.98326679,0.000239,70.002,191.8607,258.7526,101.3365,0.0001251,1.4e-05,0.0,0 STARLINK-5911,1 55950U 23037AN  24114.61655059  .00001400  00000-0  12510-3 0  9995,2 55950  70.0020 191.8607 0002390 258.7526 101.3365 14.98326679 61850,6950.203,96.107,573.729,570.407,0.0
55950.0,STARLINK-5911,PAYLOAD,2024-04-24 13:13:42,14.98330262,0.0002415,70.0022,189.5047,247.0187,113.0717,4.5376e-05,4.49e-06,0.0,0 STARLINK-5911,1 55950U 23037AN  24115.55118996  .00000449  00000-0  45376-4 0  9992,2 55950  70.0022 189.5047 0002415 247.0187 113.0717 14.98330262 62334,6950.192,96.107,573.736,570.379,0.0
55950.0,STARLINK-5911,PAYLOAD,2024-04-24 14:49:50,14.98333969,0.0002115,70.0035,189.3394,244.3707,115.7233,5.5339e-05,5.68e-06,0.0,0 STARLINK-5911,1 55950U 23037AN  24115.61794838  .00000568  00000-0  55339-4 0  9996,2 55950  70.0035 189.3394 0002115 244.3707 115.7233 14.98333969 62009,6950.181,96.107,573.516,570.576,0.0
55950.0,STARLINK-5911,PAYLOAD,2024-04-25 13:15:43,14.98334016,0.0002512,70.0023,186.9807,239.4593,120.6318,4.3795e-05,4.3e-06,0.0,0 STARLINK-5911,1 55950U 23037AN  24116.55258581  .00000430  00000-0  43795-4 0  9991,2 55950  70.0023 186.9807 0002512 239.4593 120.6318 14.98334016 62482,6950.18,96.107,573.791,570.3,0.0
55950.0,STARLINK-5911,PAYLOAD,2024-04-25 14:51:50,14.98350496,0.0002544,70.0023,186.8133,272.172,87.9147,0.0002137,2.459e-05,0.0,0 STARLINK-5911,1 55950U 23037AN  24116.61933201  .00002459  00000-0  21370-3 0  9994,2 55950  70.0023 186.8133 0002544 272.1720  87.9147 14.98350496 62153,6950.13,96.106,573.763,570.226,0.0
55950.0,STARLINK-5911,PAYLOAD,2024-04-26 05:17:04,14.98325858,0.0003094,70.003,185.2975,267.784,92.2964,-1.9378e-05,-3.24e-06,0.0,0 STARLINK-5911,1 55950U 23037AN  24117.22018960 -.00000324  00000-0 -19378-4 0  9995,2 55950  70.0030 185.2975 0003094 267.7840  92.2964 14.98325858 62589,6950.206,96.107,574.221,569.92,0.0
55950.0,STARLINK-5911,PAYLOAD,2024-04-26 13:17:44,14.98328642,0.0002822,70.0014,184.455,255.12,104.9647,-1.3266e-05,-2.51e-06,0.0,0 STARLINK-5911,1 55950U 23037AN  24117.55398677 -.00000251  00000-0 -13266-4 0  9996,2 55950  70.0014 184.4550 0002822 255.1200 104.9647 14.98328642 62291,6950.197,96.107,574.023,570.101,0.0
55950.0,STARLINK-5911,PAYLOAD,2024-04-26 14:53:52,14.98334181,0.0002566,70.0011,184.2842,256.3932,103.6941,-1.6679e-05,-2.92e-06,0.0,0 STARLINK-5911,1 55950U 23037AN  24117.62074366 -.00000292  00000-0 -16679-4 0  9996,2 55950  70.0011 184.2842 0002566 256.3932 103.6941 14.98334181 62647,6950.18,96.107,573.828,570.262,0.0
55950.0,STARLINK-5911,PAYLOAD,2024-04-27 03:42:57,14.98324221,0.0003055,70.0011,182.9394,263.6945,96.3866,-2.9154e-05,-4.41e-06,0.0,0 STARLINK-5911,1 55950U 23037AN  24118.15482886 -.00000441  00000-0 -29154-4 0  9993,2 55950  70.0011 182.9394 0003055 263.6945  96.3866 14.98324221 62720,6950.211,96.107,574.199,569.952,0.0
55950.0,STARLINK-5911,PAYLOAD,2024-04-27 13:19:45,14.98330663,0.0002841,70.0009,181.9287,266.2124,93.871,4.1044e-05,3.97e-06,0.0,0 STARLINK-5911,1 55950U 23037AN  24118.55538346  .00000397  00000-0  41044-4 0  9990,2 55950  70.0009 181.9287 0002841 266.2124  93.8710 14.98330663 62780,6950.191,96.107,574.03,570.081,0.0
55950.0,STARLINK-5911,PAYLOAD,2024-04-27 21:20:25,14.98339818,0.0003278,70.0009,181.0875,266.8161,93.2623,-0.00017484,-2.179e-05,0.0,0 STARLINK-5911,1 55950U 23037AN  24118.88918151 -.00002179  00000-0 -17484-3 0  9994,2 55950  70.0009 181.0875 0003278 266.8161  93.2623 14.98339818 62492,6950.163,96.106,574.306,569.749,0.0
55950.0,STARLINK-5911,PAYLOAD,2024-04-28 03:44:58,14.98321977,0.0002524,70.0019,180.4164,255.8871,104.2008,-8.0655e-06,-1.89e-06,0.0,0 STARLINK-5911,1 55950U 23037AN  24119.15623019 -.00000189  00000-0 -80655-5 0  9992,2 55950  70.0019 180.4164 0002524 255.8871 104.2008 14.98321977 62875,6950.218,96.108,573.837,570.328,0.0
55950.0,STARLINK-5911,PAYLOAD,2024-04-28 13:21:47,14.98316415,0.00027,70.0012,179.4055,260.2249,99.8605,-6.7156e-05,-8.94e-06,0.0,0 STARLINK-5911,1 55950U 23037AN  24119.55679769 -.00000894  00000-0 -67156-4 0  9992,2 55950  70.0012 179.4055 0002700 260.2249  99.8605 14.98316415 62930,6950.235,96.108,573.976,570.223,0.0
55950.0,STARLINK-5911,PAYLOAD,2024-04-28 21:22:27,14.98325499,0.0002971,70.0002,178.5624,269.7925,90.2894,-3.7387e-06,-1.38e-06,0.0,0 STARLINK-5911,1 55950U 23037AN  24119.89059144 -.00000138  00000-0 -37387-5 0  9993,2 55950  70.0002 178.5624 0002971 269.7925  90.2894 14.98325499 62641,6950.207,96.107,574.137,570.007,0.0
55950.0,STARLINK-5911,PAYLOAD,2024-04-29 05:23:07,14.98328419,0.0003074,69.9999,177.7207,268.8237,91.257,5.3272e-05,5.43e-06,0.0,0 STARLINK-5911,1 55950U 23037AN  24120.22438838  .00000543  00000-0  53272-4 0  9991,2 55950  69.9999 177.7207 0003074 268.8237  91.2570 14.98328419 63033,6950.198,96.107,574.199,569.926,0.0
55950.0,STARLINK-5911,PAYLOAD,2024-04-29 13:23:47,14.9833471,0.0003034,70.0001,176.8789,269.8019,90.2792,4.3549e-05,4.27e-06,0.0,0 STARLINK-5911,1 55950U 23037AN  24120.55818448  .00000427  00000-0  43549-4 0  9993,2 55950  70.0001 176.8789 0003034 269.8019  90.2792 14.98334710 62743,6950.178,96.107,574.152,569.935,0.0
